CCSDS_OMM_VERS = 2.0
CREATION_DATE  = 
ORIGINATOR     = 

OBJECT_NAME    = COSMOS 1933
OBJECT_ID      = 1988-020A
CENTER_NAME    = EARTH
REF_FRAME      = TEME
TIME_SYSTEM    = UTC
MEAN_ELEMENT_THEORY = SGP/SGP4

EPOCH          = 2026-02-02T04:33:49.492224
MEAN_MOTION    = 15.17666657
ECCENTRICITY   = .0003777
INCLINATION    = 82.5133
RA_OF_ASC_NODE = 286.0312
ARG_OF_PERICENTER = 349.6570
MEAN_ANOMALY   = 10.4585

EPHEMERIS_TYPE = 0
CLASSIFICATION_TYPE = U
NORAD_CAT_ID   = 18958
ELEMENT_SET_NO = 999
REV_AT_EPOCH   = 4484
BSTAR          = .19793E-3
MEAN_MOTION_DOT = .4015E-4
MEAN_MOTION_DDOT = 0

CCSDS_OMM_VERS = 2.0
CREATION_DATE  = 
ORIGINATOR     = 

OBJECT_NAME    = SL-3 R/B
OBJECT_ID      = 1988-032B
CENTER_NAME    = EARTH
REF_FRAME      = TEME
TIME_SYSTEM    = UTC
MEAN_ELEMENT_THEORY = SGP/SGP4

EPOCH          = 2026-02-02T10:32:45.847392
MEAN_MOTION    = 15.19432277
ECCENTRICITY   = .002628
INCLINATION    = 97.5136
RA_OF_ASC_NODE = 16.8421
ARG_OF_PERICENTER = 1.3576
MEAN_ANOMALY   = 358.7725

EPHEMERIS_TYPE = 0
CLASSIFICATION_TYPE = U
NORAD_CAT_ID   = 19046
ELEMENT_SET_NO = 999
REV_AT_EPOCH   = 4675
BSTAR          = .31038E-3
MEAN_MOTION_DOT = .6566E-4
MEAN_MOTION_DDOT = 0

CCSDS_OMM_VERS = 2.0
CREATION_DATE  = 
ORIGINATOR     = 

OBJECT_NAME    = SL-16 R/B
OBJECT_ID      = 1988-039B
CENTER_NAME    = EARTH
REF_FRAME      = TEME
TIME_SYSTEM    = UTC
MEAN_ELEMENT_THEORY = SGP/SGP4

EPOCH          = 2026-02-02T11:12:35.016480
MEAN_MOTION    = 14.19610890
ECCENTRICITY   = .0020635
INCLINATION    = 71.0151
RA_OF_ASC_NODE = 143.0274
ARG_OF_PERICENTER = 28.6516
MEAN_ANOMALY   = 331.5738

EPHEMERIS_TYPE = 0
CLASSIFICATION_TYPE = U
NORAD_CAT_ID   = 19120
ELEMENT_SET_NO = 999
REV_AT_EPOCH   = 95338
BSTAR          = .80477E-4
MEAN_MOTION_DOT = .122E-5
MEAN_MOTION_DDOT = 0

CCSDS_OMM_VERS = 2.0
CREATION_DATE  = 
ORIGINATOR     = 

OBJECT_NAME    = COSMOS 1953
OBJECT_ID      = 1988-050A
CENTER_NAME    = EARTH
REF_FRAME      = TEME
TIME_SYSTEM    = UTC
MEAN_ELEMENT_THEORY = SGP/SGP4

EPOCH          = 2026-02-02T12:40:43.650336
MEAN_MOTION    = 15.27783597
ECCENTRICITY   = .0010366
INCLINATION    = 82.5078
RA_OF_ASC_NODE = 193.5842
ARG_OF_PERICENTER = 246.3598
MEAN_ANOMALY   = 113.6553

EPHEMERIS_TYPE = 0
CLASSIFICATION_TYPE = U
NORAD_CAT_ID   = 19210
ELEMENT_SET_NO = 999
REV_AT_EPOCH   = 3241
BSTAR          = .38657E-3
MEAN_MOTION_DOT = .10538E-3
MEAN_MOTION_DDOT = 0

CCSDS_OMM_VERS = 2.0
CREATION_DATE  = 
ORIGINATOR     = 

OBJECT_NAME    = SL-8 R/B
OBJECT_ID      = 1988-053B
CENTER_NAME    = EARTH
REF_FRAME      = TEME
TIME_SYSTEM    = UTC
MEAN_ELEMENT_THEORY = SGP/SGP4

EPOCH          = 2026-02-02T11:26:32.736192
MEAN_MOTION    = 14.38893515
ECCENTRICITY   = .0020096
INCLINATION    = 74.0474
RA_OF_ASC_NODE = 177.3656
ARG_OF_PERICENTER = 3.5778
MEAN_ANOMALY   = 58.0657

EPHEMERIS_TYPE = 0
CLASSIFICATION_TYPE = U
NORAD_CAT_ID   = 19257
ELEMENT_SET_NO = 999
REV_AT_EPOCH   = 97153
BSTAR          = .82273E-4
MEAN_MOTION_DOT = .228E-5
MEAN_MOTION_DDOT = 0

CCSDS_OMM_VERS = 2.0
CREATION_DATE  = 
ORIGINATOR     = 

OBJECT_NAME    = COSMOS 1975
OBJECT_ID      = 1988-093A
CENTER_NAME    = EARTH
REF_FRAME      = TEME
TIME_SYSTEM    = UTC
MEAN_ELEMENT_THEORY = SGP/SGP4

EPOCH          = 2026-02-02T10:07:10.818336
MEAN_MOTION    = 15.27425140
ECCENTRICITY   = .0010407
INCLINATION    = 82.5225
RA_OF_ASC_NODE = 153.0593
ARG_OF_PERICENTER = 297.3964
MEAN_ANOMALY   = 62.6216

EPHEMERIS_TYPE = 0
CLASSIFICATION_TYPE = U
NORAD_CAT_ID   = 19573
ELEMENT_SET_NO = 999
REV_AT_EPOCH   = 1402
BSTAR          = .3618E-3
MEAN_MOTION_DOT = .9757E-4
MEAN_MOTION_DDOT = 0

CCSDS_OMM_VERS = 2.0
CREATION_DATE  = 
ORIGINATOR     = 

OBJECT_NAME    = SL-14 R/B
OBJECT_ID      = 1988-093B
CENTER_NAME    = EARTH
REF_FRAME      = TEME
TIME_SYSTEM    = UTC
MEAN_ELEMENT_THEORY = SGP/SGP4

EPOCH          = 2026-02-02T12:21:27.067104
MEAN_MOTION    = 14.85616639
ECCENTRICITY   = .0021465
INCLINATION    = 82.5285
RA_OF_ASC_NODE = 75.0735
ARG_OF_PERICENTER = 150.8465
MEAN_ANOMALY   = 328.4625

EPHEMERIS_TYPE = 0
CLASSIFICATION_TYPE = U
NORAD_CAT_ID   = 19574
ELEMENT_SET_NO = 999
REV_AT_EPOCH   = 99581
BSTAR          = .49375E-4
MEAN_MOTION_DOT = .454E-5
MEAN_MOTION_DDOT = 0

CCSDS_OMM_VERS = 2.0
CREATION_DATE  = 
ORIGINATOR     = 

OBJECT_NAME    = SL-16 R/B
OBJECT_ID      = 1988-102B
CENTER_NAME    = EARTH
REF_FRAME      = TEME
TIME_SYSTEM    = UTC
MEAN_ELEMENT_THEORY = SGP/SGP4

EPOCH          = 2026-02-02T12:24:08.615232
MEAN_MOTION    = 14.16146001
ECCENTRICITY   = .0012174
INCLINATION    = 70.9971
RA_OF_ASC_NODE = 225.5007
ARG_OF_PERICENTER = 59.9348
MEAN_ANOMALY   = 300.2981

EPHEMERIS_TYPE = 0
CLASSIFICATION_TYPE = U
NORAD_CAT_ID   = 19650
ELEMENT_SET_NO = 999
REV_AT_EPOCH   = 92191
BSTAR          = -.63427E-4
MEAN_MOTION_DOT = -.173E-5
MEAN_MOTION_DDOT = 0

CCSDS_OMM_VERS = 2.0
CREATION_DATE  = 
ORIGINATOR     = 

OBJECT_NAME    = INTERCOSMOS 24
OBJECT_ID      = 1989-080A
CENTER_NAME    = EARTH
REF_FRAME      = TEME
TIME_SYSTEM    = UTC
MEAN_ELEMENT_THEORY = SGP/SGP4

EPOCH          = 2026-02-02T09:04:02.472096
MEAN_MOTION    = 12.59509500
ECCENTRICITY   = .1188405
INCLINATION    = 82.6073
RA_OF_ASC_NODE = 127.3850
ARG_OF_PERICENTER = 14.8039
MEAN_ANOMALY   = 348.4876

EPHEMERIS_TYPE = 0
CLASSIFICATION_TYPE = U
NORAD_CAT_ID   = 20261
ELEMENT_SET_NO = 999
REV_AT_EPOCH   = 66235
BSTAR          = .14178E-3
MEAN_MOTION_DOT = .499E-5
MEAN_MOTION_DDOT = 0

CCSDS_OMM_VERS = 2.0
CREATION_DATE  = 
ORIGINATOR     = 

OBJECT_NAME    = SL-14 R/B
OBJECT_ID      = 1989-080C
CENTER_NAME    = EARTH
REF_FRAME      = TEME
TIME_SYSTEM    = UTC
MEAN_ELEMENT_THEORY = SGP/SGP4

EPOCH          = 2026-02-02T10:16:51.364992
MEAN_MOTION    = 12.50452284
ECCENTRICITY   = .1229413
INCLINATION    = 82.5935
RA_OF_ASC_NODE = 195.8241
ARG_OF_PERICENTER = 265.3953
MEAN_ANOMALY   = 80.6041

EPHEMERIS_TYPE = 0
CLASSIFICATION_TYPE = U
NORAD_CAT_ID   = 20262
ELEMENT_SET_NO = 999
REV_AT_EPOCH   = 65574
BSTAR          = .96986E-4
MEAN_MOTION_DOT = .32E-5
MEAN_MOTION_DDOT = 0

CCSDS_OMM_VERS = 2.0
CREATION_DATE  = 
ORIGINATOR     = 

OBJECT_NAME    = DELTA 1 R/B
OBJECT_ID      = 1989-089B
CENTER_NAME    = EARTH
REF_FRAME      = TEME
TIME_SYSTEM    = UTC
MEAN_ELEMENT_THEORY = SGP/SGP4

EPOCH          = 2026-02-02T12:16:39.215136
MEAN_MOTION    = 14.50631431
ECCENTRICITY   = .0067833
INCLINATION    = 97.0729
RA_OF_ASC_NODE = 246.5392
ARG_OF_PERICENTER = 233.2102
MEAN_ANOMALY   = 126.2859

EPHEMERIS_TYPE = 0
CLASSIFICATION_TYPE = U
NORAD_CAT_ID   = 20323
ELEMENT_SET_NO = 999
REV_AT_EPOCH   = 89063
BSTAR          = .11293E-3
MEAN_MOTION_DOT = .42E-5
MEAN_MOTION_DDOT = 0

CCSDS_OMM_VERS = 2.0
CREATION_DATE  = 
ORIGINATOR     = 

OBJECT_NAME    = ARIANE 40 R/B
OBJECT_ID      = 1990-005H
CENTER_NAME    = EARTH
REF_FRAME      = TEME
TIME_SYSTEM    = UTC
MEAN_ELEMENT_THEORY = SGP/SGP4

EPOCH          = 2026-02-02T03:56:36.981024
MEAN_MOTION    = 14.39845229
ECCENTRICITY   = .00091873
INCLINATION    = 98.3158
RA_OF_ASC_NODE = 94.8704
ARG_OF_PERICENTER = 316.3734
MEAN_ANOMALY   = 43.6727

EPHEMERIS_TYPE = 0
CLASSIFICATION_TYPE = U
NORAD_CAT_ID   = 20443
ELEMENT_SET_NO = 999
REV_AT_EPOCH   = 88769
BSTAR          = .10484161E-3
MEAN_MOTION_DOT = .287E-5
MEAN_MOTION_DDOT = 0

