COSMOS 1933             
1 18958U 88020A   26033.19015616  .00004015  00000+0  19793-3 0  9993
2 18958  82.5133 286.0312 0003777 349.6570  10.4585 15.17666657 44848
SL-3 R/B                
1 19046U 88032B   26033.43941953  .00006566  00000+0  31038-3 0  9993
2 19046  97.5136  16.8421 0026280   1.3576 358.7725 15.19432277 46755
SL-16 R/B               
1 19120U 88039B   26033.46707195  .00000122  00000+0  80477-4 0  9998
2 19120  71.0151 143.0274 0020635  28.6516 331.5738 14.19610890953382
COSMOS 1953             
1 19210U 88050A   26033.52828299  .00010538  00000+0  38657-3 0  9991
2 19210  82.5078 193.5842 0010366 246.3598 113.6553 15.27783597 32418
SL-8 R/B                
1 19257U 88053B   26033.47676778  .00000228  00000+0  82273-4 0  9991
2 19257  74.0474 177.3656 0020096   3.5778  58.0657 14.38893515971537
COSMOS 1975             
1 19573U 88093A   26033.42165299  .00009757  00000+0  36180-3 0  9993
2 19573  82.5225 153.0593 0010407 297.3964  62.6216 15.27425140 14020
SL-14 R/B               
1 19574U 88093B   26033.51489661  .00000454  00000+0  49375-4 0  9992
2 19574  82.5285  75.0735 0021465 150.8465 328.4625 14.85616639995813
SL-16 R/B               
1 19650U 88102B   26033.51676638 -.00000173  00000+0 -63427-4 0  9994
2 19650  70.9971 225.5007 0012174  59.9348 300.2981 14.16146001921919
INTERCOSMOS 24          
1 20261U 89080A   26033.37780639  .00000499  00000+0  14178-3 0  9998
2 20261  82.6073 127.3850 1188405  14.8039 348.4876 12.59509500662355
SL-14 R/B               
1 20262U 89080C   26033.42837228  .00000320  00000+0  96986-4 0  9993
2 20262  82.5935 195.8241 1229413 265.3953  80.6041 12.50452284655740
DELTA 1 R/B             
1 20323U 89089B   26033.51156499  .00000420  00000+0  11293-3 0  9992
2 20323  97.0729 246.5392 0067833 233.2102 126.2859 14.50631431890634
ARIANE 40 R/B           
1 20443U 90005H   26033.16431691  .00000287  00000+0  10484-3 0  9998
2 20443  98.3158  94.8704 0009187 316.3734  43.6727 14.39845229887697
